GLOBALSTAR M023 [+]     
1 25621U 99004A   24092.04893323 -.00000095  00000+0  48272-4 0  9998
2 25621  52.0120 319.7095 0009672 227.3116 280.3892 12.62449831159971
GLOBALSTAR M040 [-]     
1 25622U 99004B   24092.41239816 -.00000061  00000+0  23953-3 0  9992
2 25622  51.9931 322.1086 0001227 111.0821  59.6646 12.61970136159776
GLOBALSTAR M036 [-]     
1 25623U 99004C   24091.95044747 -.00000015  00000+0  98601-3 0  9999
2 25623  51.9988 325.9254 0010841 285.1668  89.8406 11.86565762126483
GLOBALSTAR M038 [-]     
1 25624U 99004D   24092.22393579 -.00000054  00000+0  33975-3 0  9997
2 25624  51.9959 264.3415 0001693 184.7771 347.2480 12.32495942147830
GLOBALSTAR M022 [-]     
1 25649U 99012A   24091.93845336 -.00000056  00000+0  37271-3 0  9998
2 25649  52.0051  53.1104 0002757  17.5844  20.5241 12.02479334123178
GLOBALSTAR M041 [-]     
1 25650U 99012B   24092.18915273 -.00000030  00000+0  71775-3 0  9995
2 25650  52.0009 280.4095 0002649 141.3964 218.7062 11.96657538125615
GLOBALSTAR M046 [-]     
1 25651U 99012C   24091.93427701  .00000001  00000+0  98387-3 0  9997
2 25651  52.0084  19.4006 0002682  84.9106 349.1151 12.09385138130150
GLOBALSTAR M037 [+]     
1 25652U 99012D   24092.40824640 -.00000094  00000+0  54582-4 0  9997
2 25652  51.9989  89.3982 0001680 291.5068 234.4632 12.62400425155537
